{"type": "FeatureCollection", "features": [ {"type": "Feature", "properties": {"norad_id": 66848, "name": "STARLINK-36091", "group": "last-30-days", "lat": 26.966617719871348, "lon": -110.50293212538553, "alt_km": 318.61870413019005, "timestamp": "2025-12-15T22:44:27.661926+00:00", "meta": {"OBJECT_NAME": "STARLINK-36091", "OBJECT_ID": "2025-281A", "EPOCH": "2025-12-15T06:00:04.999968", "MEAN_MOTION": 15.84746716, "ECCENTRICITY": 0.00014953, "INCLINATION": 43.0003, "RA_OF_ASC_NODE": 106.8787, "ARG_OF_PERICENTER": 274.9444, "MEAN_ANOMALY": 201.3928, "EPHEMERIS_TYPE": 0, "CLASSIFICATION_TYPE": "U", "NORAD_CAT_ID": 66848, "ELEMENT_SET_NO": 999, "REV_AT_EPOCH": 180, "BSTAR": -0.0053791362, "MEAN_MOTION_DOT": -0.01153814, "MEAN_MOTION_DDOT": 0}, "tle": {"line1": "1 66848U 25281A   25349.25005787 -.01153814  00000+0 -53791-2 0  9998", "line2": "2 66848  43.0003 106.8787 0001495 274.9444 201.3928 15.84746716  1807"}}, "geometry": {"type": "Point", "coordinates": [-110.50293212538553, 26.966617719871348]}}, {"type": "Feature", "properties": {"norad_id": 66849, "name": "STARLINK-36102", "group": "last-30-days", "lat": 25.606288660867172, "lon": -108.36705982758126, "alt_km": 318.74369214675244, "timestamp": "2025-12-15T22:44:27.661940+00:00", "meta": {"OBJECT_NAME": "STARLINK-36102", "OBJECT_ID": "2025-281B", "EPOCH": "2025-12-15T06:00:04.999968", "MEAN_MOTION": 15.84743595, "ECCENTRICITY": 0.00013778, "INCLINATION": 43.0004, "RA_OF_ASC_NODE": 106.8722, "ARG_OF_PERICENTER": 273.2335, "MEAN_ANOMALY": 205.4716, "EPHEMERIS_TYPE": 0, "CLASSIFICATION_TYPE": "U", "NORAD_CAT_ID": 66849, "ELEMENT_SET_NO": 999, "REV_AT_EPOCH": 180, "BSTAR": -0.0054010898, "MEAN_MOTION_DOT": -0.01157809, "MEAN_MOTION_DDOT": 0}, "tle": {"line1": "1 66849U 25281B   25349.25005787 -.01157809  00000+0 -54011-2 0  9993", "line2": "2 66849  43.0004 106.8722 0001377 273.2335 205.4716 15.84743595  1800"}}, "geometry": {"type": "Point", "coordinates": [-108.36705982758126, 25.606288660867172]}}, {"type": "Feature", "properties": {"norad_id": 66850, "name": "STARLINK-36105", "group": "last-30-days", "lat": 23.853449439748726, "lon": -105.75088094689491, "alt_km": 319.11552169600236, "timestamp": "2025-12-15T22:44:27.661951+00:00", "meta": {"OBJECT_NAME": "STARLINK-36105", "OBJECT_ID": "2025-281C", "EPOCH": "2025-12-15T06:00:04.999968", "MEAN_MOTION": 15.84716663, "ECCENTRICITY": 0.00015128, "INCLINATION": 43.0001, "RA_OF_ASC_NODE": 106.8646, "ARG_OF_PERICENTER": 269.9983, "MEAN_ANOMALY": 211.7559, "EPHEMERIS_TYPE": 0, "CLASSIFICATION_TYPE": "U", "NORAD_CAT_ID": 66850, "ELEMENT_SET_NO": 999, "REV_AT_EPOCH": 180, "BSTAR": -0.0054663065, "MEAN_MOTION_DOT": -0.01169006, "MEAN_MOTION_DDOT": 0}, "tle": {"line1": "1 66850U 25281C   25349.25005787 -.01169006  00000+0 -54663-2 0  9990", "line2": "2 66850  43.0001 106.8646 0001512 269.9983 211.7559 15.84716663  1807"}}, "geometry": {"type": "Point", "coordinates": [-105.75088094689491, 23.853449439748726]}}, {"type": "Feature", "properties": {"norad_id": 66851, "name": "STARLINK-36094", "group": "last-30-days", "lat": 22.376391126146405, "lon": -103.64865395625584, "alt_km": 319.4558794978175, "timestamp": "2025-12-15T22:44:27.661961+00:00", "meta": {"OBJECT_NAME": "STARLINK-36094", "OBJECT_ID": "2025-281D", "EPOCH": "2025-12-15T06:00:04.999968", "MEAN_MOTION": 15.84714192, "ECCENTRICITY": 0.00014646, "INCLINATION": 42.9999, "RA_OF_ASC_NODE": 106.8584, "ARG_OF_PERICENTER": 276.5972, "MEAN_ANOMALY": 207.6094, "EPHEMERIS_TYPE": 0, "CLASSIFICATION_TYPE": "U", "NORAD_CAT_ID": 66851, "ELEMENT_SET_NO": 999, "REV_AT_EPOCH": 180, "BSTAR": -0.005499124, "MEAN_MOTION_DOT": -0.01175122, "MEAN_MOTION_DDOT": 0}, "tle": {"line1": "1 66851U 25281D   25349.25005787 -.01175122  00000+0 -54991-2 0  9991", "line2": "2 66851  42.9999 106.8584 0001464 276.5972 207.6094 15.84714192  1804"}}, "geometry": {"type": "Point", "coordinates": [-103.64865395625584, 22.376391126146405]}}, {"type": "Feature", "properties": {"norad_id": 66852, "name": "STARLINK-35992", "group": "last-30-days", "lat": 20.91307584615718, "lon": -101.6447796316763, "alt_km": 319.63261252619486, "timestamp": "2025-12-15T22:44:27.661971+00:00", "meta": {"OBJECT_NAME": "STARLINK-35992", "OBJECT_ID": "2025-281E", "EPOCH": "2025-12-15T06:00:04.999968", "MEAN_MOTION": 15.84712324, "ECCENTRICITY": 0.00015232, "INCLINATION": 43.0002, "RA_OF_ASC_NODE": 106.8526, "ARG_OF_PERICENTER": 273.5078, "MEAN_ANOMALY": 213.0799, "EPHEMERIS_TYPE": 0, "CLASSIFICATION_TYPE": "U", "NORAD_CAT_ID": 66852, "ELEMENT_SET_NO": 999, "REV_AT_EPOCH": 180, "BSTAR": -0.0055083478, "MEAN_MOTION_DOT": -0.01176818, "MEAN_MOTION_DDOT": 0}, "tle": {"line1": "1 66852U 25281E   25349.25005787 -.01176818  00000+0 -55083-2 0  9998", "line2": "2 66852  43.0002 106.8526 0001523 273.5078 213.0799 15.84712324  1806"}}, "geometry": {"type": "Point", "coordinates": [-101.6447796316763, 20.91307584615718]}}, {"type": "Feature", "properties": {"norad_id": 66853, "name": "STARLINK-35986", "group": "last-30-days", "lat": 18.958737042718095, "lon": -99.07541333150303, "alt_km": 320.04295781362543, "timestamp": "2025-12-15T22:44:27.661980+00:00", "meta": {"OBJECT_NAME": "STARLINK-35986", "OBJECT_ID": "2025-281F", "EPOCH": "2025-12-15T06:00:04.999968", "MEAN_MOTION": 15.84679759, "ECCENTRICITY": 0.000156, "INCLINATION": 43.0003, "RA_OF_ASC_NODE": 106.8444, "ARG_OF_PERICENTER": 273.5314, "MEAN_ANOMALY": 216.27, "EPHEMERIS_TYPE": 0, "CLASSIFICATION_TYPE": "U", "NORAD_CAT_ID": 66853, "ELEMENT_SET_NO": 999, "REV_AT_EPOCH": 180, "BSTAR": -0.0055683252, "MEAN_MOTION_DOT": -0.0118659, "MEAN_MOTION_DDOT": 0}, "tle": {"line1": "1 66853U 25281F   25349.25005787 -.01186590  00000+0 -55683-2 0  9993", "line2": "2 66853  43.0003 106.8444 0001560 273.5314 216.2700 15.84679759  1802"}}, "geometry": {"type": "Point", "coordinates": [-99.07541333150303, 18.958737042718095]}}, {"type": "Feature", "properties": {"norad_id": 66854, "name": "STARLINK-36087", "group": "last-30-days", "lat": 17.045570693681608, "lon": -96.66075232161182, "alt_km": 320.3348404497183, "timestamp": "2025-12-15T22:44:27.661990+00:00", "meta": {"OBJECT_NAME": "STARLINK-36087", "OBJECT_ID": "2025-281G", "EPOCH": "2025-12-15T06:00:04.999968", "MEAN_MOTION": 15.84652363, "ECCENTRICITY": 0.00015853, "INCLINATION": 43.0002, "RA_OF_ASC_NODE": 106.8363, "ARG_OF_PERICENTER": 270.049, "MEAN_ANOMALY": 222.8345, "EPHEMERIS_TYPE": 0, "CLASSIFICATION_TYPE": "U", "NORAD_CAT_ID": 66854, "ELEMENT_SET_NO": 999, "REV_AT_EPOCH": 180, "BSTAR": -0.0056233727, "MEAN_MOTION_DOT": -0.01195636, "MEAN_MOTION_DDOT": 0}, "tle": {"line1": "1 66854U 25281G   25349.25005787 -.01195636  00000+0 -56234-2 0  9998", "line2": "2 66854  43.0002 106.8363 0001585 270.0490 222.8345 15.84652363  1806"}}, "geometry": {"type": "Point", "coordinates": [-96.66075232161182, 17.045570693681608]}}, {"type": "Feature", "properties": {"norad_id": 66855, "name": "STARLINK-36090", "group": "last-30-days", "lat": 15.384974112660377, "lon": -94.63217154413871, "alt_km": 320.52653498653217, "timestamp": "2025-12-15T22:44:27.662013+00:00", "meta": {"OBJECT_NAME": "STARLINK-36090", "OBJECT_ID": "2025-281H", "EPOCH": "2025-12-15T06:00:04.999968", "MEAN_MOTION": 15.84641608, "ECCENTRICITY": 0.00015086, "INCLINATION": 43.0004, "RA_OF_ASC_NODE": 106.8299, "ARG_OF_PERICENTER": 269.0409, "MEAN_ANOMALY": 226.4344, "EPHEMERIS_TYPE": 0, "CLASSIFICATION_TYPE": "U", "NORAD_CAT_ID": 66855, "ELEMENT_SET_NO": 999, "REV_AT_EPOCH": 168, "BSTAR": -0.0056322756, "MEAN_MOTION_DOT": -0.01196721, "MEAN_MOTION_DDOT": 0}, "tle": {"line1": "1 66855U 25281H   25349.25005787 -.01196721  00000+0 -56323-2 0  9994", "line2": "2 66855  43.0004 106.8299 0001508 269.0409 226.4344 15.84641608  1685"}}, "geometry": {"type": "Point", "coordinates": [-94.63217154413871, 15.384974112660377]}}, {"type": "Feature", "properties": {"norad_id": 66856, "name": "STARLINK-36072", "group": "last-30-days", "lat": 13.515502291832668, "lon": -92.4129314947365, "alt_km": 320.94935884521874, "timestamp": "2025-12-15T22:44:27.662025+00:00", "meta": {"OBJECT_NAME": "STARLINK-36072", "OBJECT_ID": "2025-281J", "EPOCH": "2025-12-15T06:00:04.999968", "MEAN_MOTION": 15.8462095, "ECCENTRICITY": 0.00014824, "INCLINATION": 43.0003, "RA_OF_ASC_NODE": 106.8223, "ARG_OF_PERICENTER": 272.9784, "MEAN_ANOMALY": 225.4212, "EPHEMERIS_TYPE": 0, "CLASSIFICATION_TYPE": "U", "NORAD_CAT_ID": 66856, "ELEMENT_SET_NO": 999, "REV_AT_EPOCH": 180, "BSTAR": -0.0056909859, "MEAN_MOTION_DOT": -0.01206727, "MEAN_MOTION_DDOT": 0}, "tle": {"line1": "1 66856U 25281J   25349.25005787 -.01206727  00000+0 -56910-2 0  9995", "line2": "2 66856  43.0003 106.8223 0001482 272.9784 225.4212 15.84620950  1806"}}, "geometry": {"type": "Point", "coordinates": [-92.4129314947365, 13.515502291832668]}}, {"type": "Feature", "properties": {"norad_id": 66857, "name": "STARLINK-36083", "group": "last-30-days", "lat": 11.87404734031017, "lon": -90.51131961528796, "alt_km": 321.248616224887, "timestamp": "2025-12-15T22:44:27.662038+00:00", "meta": {"OBJECT_NAME": "STARLINK-36083", "OBJECT_ID": "2025-281K", "EPOCH": "2025-12-15T06:00:04.999968", "MEAN_MOTION": 15.84616766, "ECCENTRICITY": 0.0001525, "INCLINATION": 43.0001, "RA_OF_ASC_NODE": 106.8162, "ARG_OF_PERICENTER": 275.0036, "MEAN_ANOMALY": 225.8981, "EPHEMERIS_TYPE": 0, "CLASSIFICATION_TYPE": "U", "NORAD_CAT_ID": 66857, "ELEMENT_SET_NO": 999, "REV_AT_EPOCH": 180, "BSTAR": -0.0057202929, "MEAN_MOTION_DOT": -0.01212059, "MEAN_MOTION_DDOT": 0}, "tle": {"line1": "1 66857U 25281K   25349.25005787 -.01212059  00000+0 -57203-2 0  9997", "line2": "2 66857  43.0001 106.8162 0001525 275.0036 225.8981 15.84616766  1806"}}, "geometry": {"type": "Point", "coordinates": [-90.51131961528796, 11.87404734031017]}}]}